OBJECT_NAME,OBJECT_ID,EPOCH,MEAN_MOTION,ECCENTRICITY,INCLINATION,RA_OF_ASC_NODE,ARG_OF_PERICENTER,MEAN_ANOMALY,EPHEMERIS_TYPE,CLASSIFICATION_TYPE,NORAD_CAT_ID,ELEMENT_SET_NO,REV_AT_EPOCH,BSTAR,MEAN_MOTION_DOT,MEAN_MOTION_DDOT
KUZGTU 1 (RS47S),2023-091AV,2026-07-17T23:09:23.608512,15.30506262,.00097948,97.5043,263.7702,356.1414,3.9750,0,U,57217,999,16908,.21651762E-3,.6316E-4,0
SONATE-2,2024-043Q,2026-07-17T22:19:14.806272,15.60980545,.00067591,97.5566,351.2719,98.0994,262.1029,0,U,59112,999,13268,.30609144E-3,.25616E-3,0
MESAT1,2024-125G,2026-07-17T02:18:03.631104,15.66613210,.001085,97.2241,56.3290,106.3695,253.8760,0,U,60209,999,11424,.44049E-3,.4625E-3,0
OOV-CUBE (TUBSAT-30),2024-128F,2026-07-17T22:16:55.824960,15.02880169,.00407774,61.9941,118.3707,140.6184,219.7884,0,U,60240,999,11073,.8351939E-4,.929E-5,0
COLIBRI-S (RS67S),2024-199M,2026-07-17T21:20:10.545216,15.48922545,.00092891,97.2939,73.0430,152.9909,207.1827,0,U,61746,999,14216,.24593575E-3,.13205E-3,0
HORS 3 (RS81S),2024-199U,2026-07-17T22:58:28.488288,15.57042801,.00074425,97.2923,75.4512,147.6478,212.5235,0,U,61753,999,14234,.34541352E-3,.24931E-3,0
HORS 4 (RS82S),2024-199V,2026-07-17T22:41:05.115840,15.62579801,.00072917,97.2863,76.8573,140.3187,219.8606,0,U,61754,999,14244,.42094409E-3,.37581E-3,0
SIT-2086,2024-199AF,2026-07-17T21:48:20.746944,15.55150972,.00084506,97.2880,75.7711,136.4426,223.7497,0,U,61764,999,13920,.35334573E-3,.2379E-3,0
HYPERVIEW 1G (RS66S),2024-199AP,2026-07-17T10:47:45.171168,15.86108599,.0008311,97.2778,79.9100,143.3161,216.8680,0,U,61772,999,13945,.66647E-3,.166984E-2,0
ALTAIR (RS65S),2024-199AW,2026-07-17T21:36:25.786080,15.37542022,.00123338,97.2984,68.0536,186.5960,173.5125,0,U,61779,999,14183,.1750296E-3,.6379E-4,0
ASRTU-1 (AO-123),2024-199AY,2026-07-17T21:59:33.839232,15.36077316,.00133052,97.2956,67.3123,190.5666,169.5301,0,U,61781,999,13864,.1236434E-3,.4275E-4,0
SAMSAT-IONOSPHERE (RS75S),2024-199BB,2026-07-17T22:23:27.992832,15.60302924,.00095163,97.2886,75.5974,151.6295,208.5482,0,U,61784,999,14235,.3990774E-3,.32643E-3,0
RTU MIREA 1 (RS51S),2024-199BC,2026-07-17T22:42:19.269504,15.64513110,.00096037,97.2871,76.6178,146.6532,213.5334,0,U,61785,999,13927,.46229378E-3,.4461E-3,0
TEVEL2-4,2025-052D,2026-07-17T22:45:33.782688,15.35626319,.00033439,97.3858,95.4075,46.3568,313.7952,0,U,63213,999,7483,.29858309E-3,.10265E-3,0
TEVEL2-5,2025-052E,2026-07-16T16:03:21.768480,15.35411833,.00034631,97.3862,94.0641,50.3372,309.8177,0,U,63214,999,7463,.32362702E-3,.11058E-3,0
TEVEL2-6,2025-052F,2026-07-17T23:39:03.289536,15.35402172,.0003356,97.3862,95.3683,49.8791,310.2747,0,U,63215,999,7483,.30913753E-3,.10555E-3,0
TEVEL2-1,2025-052H,2026-07-17T12:05:46.515840,15.34820987,.0004106,97.3833,94.4731,55.4900,304.6730,0,U,63217,999,7474,.273E-3,.914E-4,0
TEVEL2-3,2025-052J,2026-07-17T15:04:07.386528,15.34886315,.0003811,97.3840,94.6233,57.5215,302.6396,0,U,63218,999,7476,.26261223E-3,.8807E-4,0
TEVEL2-2,2025-052K,2026-07-17T10:32:03.164064,15.34831434,.0004139,97.3834,94.4108,55.7304,304.4330,0,U,63219,999,7473,.28479E-3,.9542E-4,0
OTP-2,2025-052AB,2026-07-17T18:06:55.763712,15.24355676,.00080402,97.3826,90.7307,63.9984,296.2081,0,U,63235,999,7452,.13849882E-3,.3321E-4,0
TEVEL2-9,2025-052AD,2026-07-17T23:28:59.326752,15.32784458,.0007425,97.3894,94.2576,49.1936,310.9949,0,U,63237,999,7474,.28843257E-3,.9062E-4,0
TEVEL2-7,2025-052AE,2026-07-17T04:14:23.728992,15.32453102,.00076022,97.3898,93.3596,51.1945,308.9975,0,U,63238,999,7461,.28759837E-3,.8943E-4,0
TEVEL2-8,2025-052AF,2026-07-17T23:15:01.967328,15.32452514,.00076017,97.3899,94.1271,50.4202,309.7710,0,U,63239,999,7473,.28673003E-3,.8915E-4,0
INNOSAT 16 (RS92S7),2025-155C,2026-07-17T21:28:19.666848,15.25755504,.00124303,97.4587,165.9349,80.3876,279.8766,0,U,64878,999,8535,.12279419E-3,.3066E-4,0
GEOSCAN 6 (RS92S6),2025-155D,2026-07-17T21:52:42.397248,15.30685662,.00098672,97.4578,167.5981,74.5385,285.6945,0,U,64879,999,8546,.18640069E-3,.5457E-4,0
GEOSCAN 1 (RS92S1),2025-155E,2026-07-17T21:38:09.893760,15.31336257,.00097885,97.4575,167.7638,74.7008,285.5314,0,U,64880,999,8547,.19692821E-3,.5889E-4,0
239ALFEROV (RS61S),2025-155F,2026-07-17T22:56:23.342208,15.33718160,.00095145,97.4574,168.4876,74.5673,285.6620,0,U,64881,999,8552,.25544629E-3,.826E-4,0
GEOSCAN 2 (RS92S2),2025-155Q,2026-07-17T22:55:34.065696,15.31594988,.00089112,97.4574,167.9823,65.0016,295.2150,0,U,64890,999,8549,.20389691E-3,.6148E-4,0
GEOSCAN 5 (RS92S5),2025-155R,2026-07-17T22:31:34.669344,15.34021879,.00085691,97.4566,168.6193,79.3609,280.8598,0,U,64891,999,8553,.25680442E-3,.8382E-4,0
GEOSCAN 4 (RS92S4),2025-155S,2026-07-17T22:04:09.791328,15.34191395,.00084654,97.4570,168.6577,79.8197,280.4000,0,U,64892,999,8553,.26755871E-3,.8784E-4,0
