KUZGTU 1 (RS47S)        
1 57217U 23091AV  26198.96485658  .00006316  00000+0  21652-3 0  9998
2 57217  97.5043 263.7702 0009794 356.1414   3.9750 15.30506262169080
SONATE-2                
1 59112U 24043Q   26198.93003248  .00025616  00000+0  30609-3 0  9996
2 59112  97.5566 351.2719 0006759  98.0994 262.1029 15.60980545132687
MESAT1                  
1 60209U 24125G   26198.09587536  .00046250  00000+0  44049-3 0  9990
2 60209  97.2241  56.3290 0010850 106.3695 253.8760 15.66613210114247
OOV-CUBE (TUBSAT-30)    
1 60240U 24128F   26198.92842390  .00000929  00000+0  83519-4 0  9991
2 60240  61.9941 118.3707 0040777 140.6184 219.7884 15.02880169110731
COLIBRI-S (RS67S)       
1 61746U 24199M   26198.88901094  .00013205  00000+0  24594-3 0  9991
2 61746  97.2939  73.0430 0009289 152.9909 207.1827 15.48922545142161
HORS 3 (RS81S)          
1 61753U 24199U   26198.95727417  .00024931  00000+0  34541-3 0  9993
2 61753  97.2923  75.4512 0007442 147.6478 212.5235 15.57042801142341
HORS 4 (RS82S)          
1 61754U 24199V   26198.94519810  .00037581  00000+0  42094-3 0  9996
2 61754  97.2863  76.8573 0007291 140.3187 219.8606 15.62579801142440
SIT-2086                
1 61764U 24199AF  26198.90857346  .00023790  00000+0  35335-3 0  9999
2 61764  97.2880  75.7711 0008450 136.4426 223.7497 15.55150972139200
HYPERVIEW 1G (RS66S)    
1 61772U 24199AP  26198.44982837  .00166984  00000+0  66647-3 0  9994
2 61772  97.2778  79.9100 0008311 143.3161 216.8680 15.86108599139458
ALTAIR (RS65S)          
1 61779U 24199AW  26198.90029845  .00006379  00000+0  17503-3 0  9991
2 61779  97.2984  68.0536 0012333 186.5960 173.5125 15.37542022141838
ASRTU-1 (AO-123)        
1 61781U 24199AY  26198.91636388  .00004275  00000+0  12364-3 0  9994
2 61781  97.2956  67.3123 0013305 190.5666 169.5301 15.36077316138646
SAMSAT-IONOSPHERE (RS7*)
1 61784U 24199BB  26198.93296288  .00032643  00000+0  39908-3 0  9993
2 61784  97.2886  75.5974 0009516 151.6295 208.5482 15.60302924142351
RTU MIREA 1 (RS51S)     
1 61785U 24199BC  26198.94605636  .00044610  00000+0  46229-3 0  9997
2 61785  97.2871  76.6178 0009603 146.6532 213.5334 15.64513110139273
TEVEL2-4                
1 63213U 25052D   26198.94830767  .00010265  00000+0  29858-3 0  9997
2 63213  97.3858  95.4075 0003343  46.3568 313.7952 15.35626319 74835
TEVEL2-5                
1 63214U 25052E   26197.66900195  .00011058  00000+0  32363-3 0  9995
2 63214  97.3862  94.0641 0003463  50.3372 309.8177 15.35411833 74632
TEVEL2-6                
1 63215U 25052F   26198.98545474  .00010555  00000+0  30914-3 0  9998
2 63215  97.3862  95.3683 0003356  49.8791 310.2747 15.35402172 74839
TEVEL2-1                
1 63217U 25052H   26198.50401060  .00009140  00000+0  27300-3 0  9993
2 63217  97.3833  94.4731 0004106  55.4900 304.6730 15.34820987 74748
TEVEL2-3                
1 63218U 25052J   26198.62786327  .00008807  00000+0  26261-3 0  9993
2 63218  97.3840  94.6233 0003811  57.5215 302.6396 15.34886315 74765
TEVEL2-2                
1 63219U 25052K   26198.43892551  .00009542  00000+0  28479-3 0  9990
2 63219  97.3834  94.4108 0004139  55.7304 304.4330 15.34831434 74738
OTP-2                   
1 63235U 25052AB  26198.75481208  .00003321  00000+0  13850-3 0  9992
2 63235  97.3826  90.7307 0008040  63.9984 296.2081 15.24355676 74523
TEVEL2-9                
1 63237U 25052AD  26198.97846443  .00009062  00000+0  28843-3 0  9990
2 63237  97.3894  94.2576 0007425  49.1936 310.9949 15.32784458 74740
TEVEL2-7                
1 63238U 25052AE  26198.17666353  .00008943  00000+0  28760-3 0  9998
2 63238  97.3898  93.3596 0007602  51.1945 308.9975 15.32453102 74618
TEVEL2-8                
1 63239U 25052AF  26198.96877277  .00008915  00000+0  28673-3 0  9997
2 63239  97.3899  94.1271 0007601  50.4202 309.7710 15.32452514 74731
INNOSAT 16 (RS92S7)     
1 64878U 25155C   26198.89467207  .00003066  00000+0  12279-3 0  9998
2 64878  97.4587 165.9349 0012430  80.3876 279.8766 15.25755504 85359
GEOSCAN 6 (RS92S6)      
1 64879U 25155D   26198.91160182  .00005457  00000+0  18640-3 0  9998
2 64879  97.4578 167.5981 0009867  74.5385 285.6945 15.30685662 85469
GEOSCAN 1 (RS92S1)      
1 64880U 25155E   26198.90150340  .00005889  00000+0  19693-3 0  9992
2 64880  97.4575 167.7638 0009788  74.7008 285.5314 15.31336257 85479
239ALFEROV (RS61S)      
1 64881U 25155F   26198.95582572  .00008260  00000+0  25545-3 0  9993
2 64881  97.4574 168.4876 0009514  74.5673 285.6620 15.33718160 85520
GEOSCAN 2 (RS92S2)      
1 64890U 25155Q   26198.95525539  .00006148  00000+0  20390-3 0  9999
2 64890  97.4574 167.9823 0008911  65.0016 295.2150 15.31594988 85491
GEOSCAN 5 (RS92S5)      
1 64891U 25155R   26198.93859571  .00008382  00000+0  25680-3 0  9993
2 64891  97.4566 168.6193 0008569  79.3609 280.8598 15.34021879 85534
GEOSCAN 4 (RS92S4)      
1 64892U 25155S   26198.91955777  .00008784  00000+0  26756-3 0  9998
2 64892  97.4570 168.6577 0008465  79.8197 280.4000 15.34191395 85533
